SL-12 R/B(2)            
1 15772U 85042D   26196.16226483 -.00000003  00000+0  20113-4 0  9991
2 15772  71.1066 178.4110 0037329 286.2291 150.2824 14.22010868132517
SL-14 R/B               
1 15945U 85069B   26196.17130296  .00000207  00000+0  20468-4 0  9997
2 15945  82.5263 265.0488 0020043 127.3580 232.9466 14.86535084191771
SL-16 R/B               
1 16182U 85097B   26196.15856448  .00000143  00000+0  95384-4 0  9992
2 16182  71.0007 232.1898 0005639  51.8445   5.3030 14.16612776105286
SL-14 R/B               
1 16496U 86006B   26195.91093958  .00000238  00000+0  22486-4 0  9991
2 16496  82.5282 140.0250 0075440 209.8049 149.8863 14.86968188168114
COSMOS 1743             
1 16719U 86034A   26196.22164905  .00040710  00000+0  34305-3 0  9997
2 16719  82.5282 298.8670 0005382 176.8220 183.3077 15.69622367200184
SL-14 R/B               
1 16792U 86046B   26195.83413645  .00000240  00000+0  24718-4 0  9997
2 16792  82.4839 320.0518 0023494 164.1915 196.0040 14.85690396145280
SL-14 R/B               
1 16882U 86055B   26195.97031998  .00000217  00000+0  22217-4 0  9995
2 16882  82.5203   7.0077 0017308 271.0772 204.6458 14.85740202138265
AJISAI (EGS)            
1 16908U 86061A   26196.17935877 -.00000088  00000+0  64422-4 0  9994
2 16908  50.0101  61.3202 0011084 251.8272 252.8932 12.44516663483877
SL-14 R/B               
1 17567U 87024B   26195.88864351  .00000223  00000+0  22487-4 0  9996
2 17567  82.5297 333.2120 0017787 194.8266 165.2432 14.86231588107020
COSMOS 1833             
1 17589U 87027A   26196.07004066  .00000088  00000+0  72779-4 0  9992
2 17589  70.9213  58.2635 0024247   8.9062 351.2484 14.13066600 28315
SL-16 R/B               
1 17590U 87027B   26195.88509113  .00000081  00000+0  64085-4 0  9999
2 17590  71.0032   8.4593 0007142 281.9790  78.0533 14.17173383 33365
SL-14 R/B               
1 17912U 87038B   26196.01648017  .00000211  00000+0  21572-4 0  9991
2 17912  82.5012 176.8582 0020827 102.7476 257.6069 14.85461386 98135
COSMOS 1844             
1 17973U 87041A   26196.18045465  .00000082  00000+0  67519-4 0  9995
2 17973  70.8997 125.2608 0031335 195.3106 164.7071 14.14580745 21618
SL-14 R/B               
1 18153U 87055B   26196.17291942  .00000198  00000+0  19934-4 0  9999
2 18153  82.4972 228.8463 0019419 315.1779  44.7867 14.85726995 88864
COSMOS 1867             
1 18187U 87060A   26195.65840600 -.00000065  00000+0  13419-4 0  9991
2 18187  65.0119 311.1232 0017127 281.9925  77.9240 14.31518447 38116
SL-14 R/B               
1 18749U 88001B   26196.17693201  .00000200  00000+0  20232-4 0  9993
2 18749  82.5120  75.4399 0018158 171.8783 188.2731 14.85626773 60953
COSMOS 1933             
1 18958U 88020A   26196.16967441  .00001738  00000+0  81796-4 0  9994
2 18958  82.5142 124.7235 0005884 107.3878 252.8001 15.18888290 69573
SL-3 R/B                
1 19046U 88032B   26196.13848330  .00002075  00000+0  95888-4 0  9990
2 19046  97.5271 179.1570 0026496 145.9310 214.3633 15.21031113 71472
SL-16 R/B               
1 19120U 88039B   26196.16476524 -.00000066  00000+0 -82518-5 0  9992
2 19120  71.0125 158.9992 0020618 149.4586 210.7744 14.19631356976475
COSMOS 1953             
1 19210U 88050A   26196.00760904  .00004408  00000+0  14884-3 0  9997
2 19210  82.5058  29.9689 0011559  40.4749 319.7349 15.30336561 57242
SL-8 R/B                
1 19257U 88053B   26196.16099859  .00000121  00000+0  47819-4 0  9995
2 19257  74.0458 237.4921 0019723  23.0670  32.7677 14.38978279994936
COSMOS 1975             
1 19573U 88093A   26195.89363141  .00003767  00000+0  12963-3 0  9997
2 19573  82.5197 349.8224 0012535  83.3921 276.8746 15.29659856 38842
SL-14 R/B               
1 19574U 88093B   26196.21608921  .00000190  00000+0  19065-4 0  9991
2 19574  82.5316 282.3324 0020018 340.2573  49.3560 14.85760077 19958
SL-16 R/B               
1 19650U 88102B   26196.18832959 -.00000112  00000+0 -32162-4 0  9992
2 19650  70.9977 243.2216 0014312 185.5432 174.5535 14.16166641944947
INTERCOSMOS 24          
1 20261U 89080A   26195.97176896  .00000140  00000+0  36988-4 0  9994
2 20261  82.6049  21.5598 1187184 357.4644   2.0743 12.59691969682824
SL-14 R/B               
1 20262U 89080C   26196.16255293  .00000072  00000+0  20996-4 0  9992
2 20262  82.5934  91.3331 1228701 253.3658  92.9270 12.50578472676085
DELTA 1 R/B             
1 20323U 89089B   26196.08412593  .00000131  00000+0  40813-4 0  9994
2 20323  97.0635  23.1780 0070634  80.3377 280.5791 14.50747804914209
ARIANE 40 R/B           
1 20443U 90005H   26196.11785409  .00000096  00000+0  44037-4 0  9992
2 20443  98.2945 252.8633 0010262 174.2499 185.8810 14.39940661911148
DELTA 2 R/B(1)          
1 20453U 90008B   26195.89453631  .00079925  00000+0  48965-3 0  9999
2 20453  35.5999  49.6579 0059150  13.1124 347.1141 15.73550372946062
COSMOS 2058             
1 20465U 90010A   26196.19377716  .00001639  00000+0  93358-4 0  9992
2 20465  82.4672 281.7336 0007938 249.9899 110.0477 15.12156356961501
SL-14 R/B               
1 20466U 90010B   26195.95425772  .00000187  00000+0  19676-4 0  9990
2 20466  82.5035 147.8687 0018370 238.1300 121.8128 14.83662990947359
