OBJECT_NAME,OBJECT_ID,EPOCH,MEAN_MOTION,ECCENTRICITY,INCLINATION,RA_OF_ASC_NODE,ARG_OF_PERICENTER,MEAN_ANOMALY,EPHEMERIS_TYPE,CLASSIFICATION_TYPE,NORAD_CAT_ID,ELEMENT_SET_NO,REV_AT_EPOCH,BSTAR,MEAN_MOTION_DOT,MEAN_MOTION_DDOT
SL-12 R/B(2),1985-042D,2026-07-15T03:53:39.681312,14.22010868,.0037329,71.1066,178.4110,286.2291,150.2824,0,U,15772,999,13251,.20113E-4,-.3E-7,0
SL-14 R/B,1985-069B,2026-07-15T04:06:40.575744,14.86535084,.0020043,82.5263,265.0488,127.3580,232.9466,0,U,15945,999,19177,.20468E-4,.207E-5,0
SL-16 R/B,1985-097B,2026-07-15T03:48:19.971072,14.16612776,.0005639,71.0007,232.1898,51.8445,5.3030,0,U,16182,999,10528,.95384E-4,.143E-5,0
SL-14 R/B,1986-006B,2026-07-14T21:51:45.179712,14.86968188,.007544,82.5282,140.0250,209.8049,149.8863,0,U,16496,999,16811,.22486E-4,.238E-5,0
COSMOS 1743,1986-034A,2026-07-15T05:19:10.477920,15.69622367,.0005382,82.5282,298.8670,176.8220,183.3077,0,U,16719,999,20018,.34305E-3,.4071E-3,0
SL-14 R/B,1986-046B,2026-07-14T20:01:09.389280,14.85690396,.00234943,82.4839,320.0518,164.1915,196.0040,0,U,16792,999,14528,.24718146E-4,.24E-5,0
SL-14 R/B,1986-055B,2026-07-14T23:17:15.646272,14.85740202,.0017308,82.5203,7.0077,271.0772,204.6458,0,U,16882,999,13826,.22217E-4,.217E-5,0
AJISAI (EGS),1986-061A,2026-07-15T04:18:16.597728,12.44516663,.0011084,50.0101,61.3202,251.8272,252.8932,0,U,16908,999,48387,.64422E-4,-.88E-6,0
SL-14 R/B,1987-024B,2026-07-14T21:19:38.799264,14.86231588,.0017787,82.5297,333.2120,194.8266,165.2432,0,U,17567,999,10702,.22487E-4,.223E-5,0
COSMOS 1833,1987-027A,2026-07-15T01:40:51.513024,14.13066600,.0024247,70.9213,58.2635,8.9062,351.2484,0,U,17589,999,2831,.72779E-4,.88E-6,0
SL-16 R/B,1987-027B,2026-07-14T21:14:31.873632,14.17173383,.0007142,71.0032,8.4593,281.9790,78.0533,0,U,17590,999,3336,.64085E-4,.81E-6,0
SL-14 R/B,1987-038B,2026-07-15T00:23:43.886688,14.85461386,.0020827,82.5012,176.8582,102.7476,257.6069,0,U,17912,999,9813,.21572E-4,.211E-5,0
COSMOS 1844,1987-041A,2026-07-15T04:19:51.281760,14.14580745,.0031335,70.8997,125.2608,195.3106,164.7071,0,U,17973,999,2161,.67519E-4,.82E-6,0
SL-14 R/B,1987-055B,2026-07-15T04:09:00.237888,14.85726995,.0019419,82.4972,228.8463,315.1779,44.7867,0,U,18153,999,8886,.19934E-4,.198E-5,0
COSMOS 1867,1987-060A,2026-07-14T15:48:06.278400,14.31518447,.00171278,65.0119,311.1232,281.9925,77.9240,0,U,18187,999,3811,.1341854E-4,-.65E-6,0
SL-14 R/B,1988-001B,2026-07-15T04:14:46.925664,14.85626773,.0018158,82.5120,75.4399,171.8783,188.2731,0,U,18749,999,6095,.20232E-4,.2E-5,0
COSMOS 1933,1988-020A,2026-07-15T04:04:19.869024,15.18888290,.0005884,82.5142,124.7235,107.3878,252.8001,0,U,18958,999,6957,.81796E-4,.1738E-4,0
SL-3 R/B,1988-032B,2026-07-15T03:19:24.957120,15.21031113,.0026496,97.5271,179.1570,145.9310,214.3633,0,U,19046,999,7147,.95888E-4,.2075E-4,0
SL-16 R/B,1988-039B,2026-07-15T03:57:15.716736,14.19631356,.0020618,71.0125,158.9992,149.4586,210.7744,0,U,19120,999,97647,-.82518E-5,-.66E-6,0
COSMOS 1953,1988-050A,2026-07-15T00:10:57.421056,15.30336561,.0011559,82.5058,29.9689,40.4749,319.7349,0,U,19210,999,5724,.14884E-3,.4408E-4,0
SL-8 R/B,1988-053B,2026-07-15T03:51:50.278176,14.38978279,.0019723,74.0458,237.4921,23.0670,32.7677,0,U,19257,999,99493,.47819E-4,.121E-5,0
COSMOS 1975,1988-093A,2026-07-14T21:26:49.753824,15.29659856,.0012535,82.5197,349.8224,83.3921,276.8746,0,U,19573,999,3884,.12963E-3,.3767E-4,0
SL-14 R/B,1988-093B,2026-07-15T05:11:10.107744,14.85760077,.0020018,82.5316,282.3324,340.2573,49.3560,0,U,19574,999,1995,.19065E-4,.19E-5,0
SL-16 R/B,1988-102B,2026-07-15T04:31:11.676576,14.16166641,.0014312,70.9977,243.2216,185.5432,174.5535,0,U,19650,999,94494,-.32162E-4,-.112E-5,0
INTERCOSMOS 24,1989-080A,2026-07-14T23:19:20.838144,12.59691969,.1187184,82.6049,21.5598,357.4644,2.0743,0,U,20261,999,68282,.36988E-4,.14E-5,0
SL-14 R/B,1989-080C,2026-07-15T03:54:04.573152,12.50578472,.1228701,82.5934,91.3331,253.3658,92.9270,0,U,20262,999,67608,.20996E-4,.72E-6,0
DELTA 1 R/B,1989-089B,2026-07-15T02:01:08.480352,14.50747804,.0070634,97.0635,23.1780,80.3377,280.5791,0,U,20323,999,91420,.40813E-4,.131E-5,0
ARIANE 40 R/B,1990-005H,2026-07-15T02:49:42.593376,14.39940661,.0010262,98.2945,252.8633,174.2499,185.8810,0,U,20443,999,91114,.44037E-4,.96E-6,0
DELTA 2 R/B(1),1990-008B,2026-07-14T21:28:07.937184,15.73550372,.005915,35.5999,49.6579,13.1124,347.1141,0,U,20453,999,94606,.48965E-3,.79925E-3,0
COSMOS 2058,1990-010A,2026-07-15T04:39:02.346624,15.12156356,.0007938,82.4672,281.7336,249.9899,110.0477,0,U,20465,999,96150,.93358E-4,.1639E-4,0
SL-14 R/B,1990-010B,2026-07-14T22:54:07.867008,14.83662990,.001837,82.5035,147.8687,238.1300,121.8128,0,U,20466,999,94735,.19676E-4,.187E-5,0
